{
  "links" : {
    "next" : "https://api.nasa.gov/neo/rest/v1/feed?start_date=2009-11-23&end_date=2009-11-23&detailed=true&api_key=t0TVs3DtDT2H8Oy2Zy8m2eVrNsAVKAexjcZXUckd",
    "prev" : "https://api.nasa.gov/neo/rest/v1/feed?start_date=2009-11-21&end_date=2009-11-21&detailed=true&api_key=t0TVs3DtDT2H8Oy2Zy8m2eVrNsAVKAexjcZXUckd",
    "self" : "https://api.nasa.gov/neo/rest/v1/feed?start_date=2009-11-22&end_date=2009-11-22&detailed=true&api_key=t0TVs3DtDT2H8Oy2Zy8m2eVrNsAVKAexjcZXUckd"
  },
  "element_count" : 14,
  "near_earth_objects" : {
    "2009-11-22" : [ {
      "links" : {
        "self" : "https://api.nasa.gov/neo/rest/v1/neo/3476133?api_key=t0TVs3DtDT2H8Oy2Zy8m2eVrNsAVKAexjcZXUckd"
      },
      "neo_reference_id" : "3476133",
      "name" : "(2009 VZ25)",
      "nasa_jpl_url" : "http://ssd.jpl.nasa.gov/sbdb.cgi?sstr=3476133",
      "absolute_magnitude_h" : 23.7,
      "estimated_diameter" : {
        "kilometers" : {
          "estimated_diameter_min" : 0.0483676488,
          "estimated_diameter_max" : 0.1081533507
        },
        "meters" : {
          "estimated_diameter_min" : 48.3676488219,
          "estimated_diameter_max" : 108.1533506775
        },
        "miles" : {
          "estimated_diameter_min" : 0.0300542543,
          "estimated_diameter_max" : 0.0672033557
        },
        "feet" : {
          "estimated_diameter_min" : 158.6865169607,
          "estimated_diameter_max" : 354.8338390368
        }
      },
      "is_potentially_hazardous_asteroid" : false,
      "close_approach_data" : [ {
        "close_approach_date" : "2009-11-22",
        "epoch_date_close_approach" : 1258876800000,
        "relative_velocity" : {
          "kilometers_per_second" : "4.6426593877",
          "kilometers_per_hour" : "16713.5737956319",
          "miles_per_hour" : "10385.1647842914"
        },
        "miss_distance" : {
          "astronomical" : "0.1862602126",
          "lunar" : "72.4552230835",
          "kilometers" : "27864130",
          "miles" : "17313968"
        },
        "orbiting_body" : "Earth"
      } ],
      "orbital_data" : {
        "orbit_id" : "12",
        "orbit_determination_date" : "2017-04-06 08:59:13",
        "orbit_uncertainty" : "8",
        "minimum_orbit_intersection" : ".18619",
        "jupiter_tisserand_invariant" : "3.024",
        "epoch_osculation" : "2455155.5",
        "eccentricity" : ".5876450201800075",
        "semi_major_axis" : "2.846177612012418",
        "inclination" : "2.173781050314564",
        "ascending_node_longitude" : "249.1024574277149",
        "orbital_period" : "1753.845868900822",
        "perihelion_distance" : "1.173635511765495",
        "perihelion_argument" : "172.3965661397032",
        "aphelion_distance" : "4.518719712259341",
        "perihelion_time" : "2455158.983654696541",
        "mean_anomaly" : "359.2849339197972",
        "mean_motion" : ".2052631912436073",
        "equinox" : "J2000"
      }
    }, {
      "links" : {
        "self" : "https://api.nasa.gov/neo/rest/v1/neo/3477946?api_key=t0TVs3DtDT2H8Oy2Zy8m2eVrNsAVKAexjcZXUckd"
      },
      "neo_reference_id" : "3477946",
      "name" : "(2009 WO8)",
      "nasa_jpl_url" : "http://ssd.jpl.nasa.gov/sbdb.cgi?sstr=3477946",
      "absolute_magnitude_h" : 27.2,
      "estimated_diameter" : {
        "kilometers" : {
          "estimated_diameter_min" : 0.0096506147,
          "estimated_diameter_max" : 0.0215794305
        },
        "meters" : {
          "estimated_diameter_min" : 9.6506146958,
          "estimated_diameter_max" : 21.5794304844
        },
        "miles" : {
          "estimated_diameter_min" : 0.0059966121,
          "estimated_diameter_max" : 0.0134088323
        },
        "feet" : {
          "estimated_diameter_min" : 31.6621227185,
          "estimated_diameter_max" : 70.7986587106
        }
      },
      "is_potentially_hazardous_asteroid" : false,
      "close_approach_data" : [ {
        "close_approach_date" : "2009-11-22",
        "epoch_date_close_approach" : 1258876800000,
        "relative_velocity" : {
          "kilometers_per_second" : "6.3772111152",
          "kilometers_per_hour" : "22957.9600146997",
          "miles_per_hour" : "14265.1835435782"
        },
        "miss_distance" : {
          "astronomical" : "0.0284497855",
          "lunar" : "11.0669660568",
          "kilometers" : "4256027.5",
          "miles" : "2644572.75"
        },
        "orbiting_body" : "Earth"
      } ],
      "orbital_data" : {
        "orbit_id" : "7",
        "orbit_determination_date" : "2017-04-06 08:59:03",
        "orbit_uncertainty" : "8",
        "minimum_orbit_intersection" : ".0281986",
        "jupiter_tisserand_invariant" : "4.363",
        "epoch_osculation" : "2455155.5",
        "eccentricity" : ".3500915371721154",
        "semi_major_axis" : "1.553395958575635",
        "inclination" : "8.2553406990494",
        "ascending_node_longitude" : "237.6653327107541",
        "orbital_period" : "707.1665068971355",
        "perihelion_distance" : "1.009565179600939",
        "perihelion_argument" : "194.4009340743124",
        "aphelion_distance" : "2.09722673755033",
        "perihelion_time" : "2455168.330557257960",
        "mean_anomaly" : "353.4682983882642",
        "mean_motion" : ".5090738835745874",
        "equinox" : "J2000"
      }
    }, {
      "links" : {
        "self" : "https://api.nasa.gov/neo/rest/v1/neo/3478350?api_key=t0TVs3DtDT2H8Oy2Zy8m2eVrNsAVKAexjcZXUckd"
      },
      "neo_reference_id" : "3478350",
      "name" : "(2009 WD52)",
      "nasa_jpl_url" : "http://ssd.jpl.nasa.gov/sbdb.cgi?sstr=3478350",
      "absolute_magnitude_h" : 24.9,
      "estimated_diameter" : {
        "kilometers" : {
          "estimated_diameter_min" : 0.0278326768,
          "estimated_diameter_max" : 0.0622357573
        },
        "meters" : {
          "estimated_diameter_min" : 27.8326768072,
          "estimated_diameter_max" : 62.2357573367
        },
        "miles" : {
          "estimated_diameter_min" : 0.0172944182,
          "estimated_diameter_max" : 0.0386714948
        },
        "feet" : {
          "estimated_diameter_min" : 91.3145593761,
          "estimated_diameter_max" : 204.1855621004
        }
      },
      "is_potentially_hazardous_asteroid" : false,
      "close_approach_data" : [ {
        "close_approach_date" : "2009-11-22",
        "epoch_date_close_approach" : 1258876800000,
        "relative_velocity" : {
          "kilometers_per_second" : "16.5884068774",
          "kilometers_per_hour" : "59718.264758627",
          "miles_per_hour" : "37106.607344048"
        },
        "miss_distance" : {
          "astronomical" : "0.0598982936",
          "lunar" : "23.3004360199",
          "kilometers" : "8960657",
          "miles" : "5567894.5"
        },
        "orbiting_body" : "Earth"
      } ],
      "orbital_data" : {
        "orbit_id" : "7",
        "orbit_determination_date" : "2017-04-06 08:58:58",
        "orbit_uncertainty" : "8",
        "minimum_orbit_intersection" : ".0598621",
        "jupiter_tisserand_invariant" : "4.805",
        "epoch_osculation" : "2455159.5",
        "eccentricity" : ".2260010989204436",
        "semi_major_axis" : "1.314471934353153",
        "inclination" : "30.2212909024384",
        "ascending_node_longitude" : "61.60192093664636",
        "orbital_period" : "550.459540889919",
        "perihelion_distance" : "1.017399832689259",
        "perihelion_argument" : "326.9013363961553",
        "aphelion_distance" : "1.611544036017046",
        "perihelion_time" : "2455127.684254361549",
        "mean_anomaly" : "20.80746645125889",
        "mean_motion" : ".6539990194701574",
        "equinox" : "J2000"
      }
    } ]
  }
}